NORAD_CAT_ID,OBJECT_NAME,OBJECT_TYPE,EPOCH,MEAN_MOTION,ECCENTRICITY,INCLINATION,RA_OF_ASC_NODE,ARG_OF_PERICENTER,MEAN_ANOMALY,BSTAR,MEAN_MOTION_DOT,MEAN_MOTION_DDOT,TLE_LINE0,TLE_LINE1,TLE_LINE2,SEMIMAJOR_AXIS,PERIOD,APOGEE,PERIGEE,DECAYED
51881.0,STARLINK-3504,PAYLOAD,2023-06-21 03:59:10,15.08842448,0.0001247,53.2155,134.7293,89.1741,270.9394,7.449e-06,-1.69e-06,0.0,0 STARLINK-3504,1 51881U 22022AF  23172.16608970 -.00000169  00000-0  74490-5 0  9999,2 51881  53.2155 134.7293 0001247  89.1741 270.9394 15.08842448 73467,6917.873,95.437,540.601,538.875,0.0
51881.0,STARLINK-3504,PAYLOAD,2023-06-21 15:06:52,15.08837951,0.000123,53.2155,132.6476,89.5451,270.5682,-8.5695e-06,-4.24e-06,0.0,0 STARLINK-3504,1 51881U 22022AF  23172.62977275 -.00000424  00000-0 -85695-5 0  9991,2 51881  53.2155 132.6476 0001230  89.5451 270.5682 15.08837951 73538,6917.887,95.438,540.603,538.901,0.0
51881.0,STARLINK-3504,PAYLOAD,2023-06-22 07:00:43,15.08843515,0.0001406,53.2161,129.6752,83.6579,276.4573,9.5552e-05,1.233e-05,0.0,0 STARLINK-3504,1 51881U 22022AF  23173.29216728  .00001233  00000-0  95552-4 0  9993,2 51881  53.2161 129.6752 0001406  83.6579 276.4573 15.08843515 73637,6917.87,95.437,540.707,538.762,0.0
51881.0,STARLINK-3504,PAYLOAD,2023-06-23 02:05:21,15.08840263,0.0001401,53.2162,126.1059,87.8819,272.2334,4.2126e-05,3.83e-06,0.0,0 STARLINK-3504,1 51881U 22022AF  23174.08705079  .00000383  00000-0  42126-4 0  9997,2 51881  53.2162 126.1059 0001401  87.8819 272.2334 15.08840263 73757,6917.88,95.438,540.714,538.775,0.0
51881.0,STARLINK-3504,PAYLOAD,2023-06-24 01:56:09,15.0883261,0.0001385,53.2169,121.6467,102.3759,257.7388,-2.3295e-05,-6.59e-06,0.0,0 STARLINK-3504,1 51881U 22022AF  23175.08066028 -.00000659  00000-0 -23295-4 0  9996,2 51881  53.2169 121.6467 0001385 102.3759 257.7388 15.08832610 73905,6917.903,95.438,540.726,538.81,0.0
51881.0,STARLINK-3504,PAYLOAD,2023-06-25 03:22:18,15.0884053,0.0001291,53.2172,116.8908,101.4247,258.6891,1.0115e-05,-1.27e-06,0.0,0 STARLINK-3504,1 51881U 22022AF  23176.14049723 -.00000127  00000-0  10115-4 0  9993,2 51881  53.2172 116.8908 0001291 101.4247 258.6891 15.08840530 74060,6917.879,95.438,540.637,538.851,0.0
51881.0,STARLINK-3504,PAYLOAD,2023-06-26 04:48:29,15.08841642,0.0001126,53.2167,112.1301,87.0004,273.1117,6.7038e-05,7.79e-06,0.0,0 STARLINK-3504,1 51881U 22022AF  23177.20033665  .00000779  00000-0  67038-4 0  9997,2 51881  53.2167 112.1301 0001126  87.0004 273.1117 15.08841642 74223,6917.875,95.437,540.519,538.961,0.0
51881.0,STARLINK-3504,PAYLOAD,2023-06-26 12:45:25,15.08828078,0.000121,53.2165,110.6438,91.7809,268.3322,0.00016676,2.366e-05,0.0,0 STARLINK-3504,1 51881U 22022AF  23177.53154347  .00002366  00000-0  16676-3 0  9999,2 51881  53.2165 110.6438 0001210  91.7809 268.3322 15.08828078 74271,6917.917,95.438,540.619,538.945,0.0
51881.0,STARLINK-3504,PAYLOAD,2023-06-27 04:39:16,15.08841451,0.0001284,53.217,107.6697,83.3206,276.7932,-5.4157e-06,-3.74e-06,0.0,0 STARLINK-3504,1 51881U 22022AF  23178.19394174 -.00000374  00000-0 -54157-5 0  9993,2 51881  53.2170 107.6697 0001284  83.3206 276.7932 15.08841451 74370,6917.876,95.437,540.629,538.853,0.0
51881.0,STARLINK-3504,PAYLOAD,2023-06-29 04:20:50,15.08847661,0.000134,53.2168,98.747,88.0329,272.0817,0.00011182,1.493e-05,0.0,0 STARLINK-3504,1 51881U 22022AF  23180.18113460  .00001493  00000-0  11182-3 0  9992,2 51881  53.2168  98.7470 0001340  88.0329 272.0817 15.08847661 74670,6917.857,95.437,540.649,538.795,0.0
51881.0,STARLINK-3504,PAYLOAD,2023-07-01 00:51:39,15.08837078,0.0001179,53.217,90.4235,83.5545,276.5581,-7.9697e-05,-1.556e-05,0.0,0 STARLINK-3504,1 51881U 22022AF  23182.03586931 -.00001556  00000-0 -79697-4 0  9993,2 51881  53.2170  90.4235 0001179  83.5545 276.5581 15.08837078 74950,6917.889,95.438,540.57,538.939,0.0
51881.0,STARLINK-3504,PAYLOAD,2023-07-02 00:42:25,15.08846022,0.0001046,53.2168,85.9624,81.4294,278.6817,4.1789e-05,3.77e-06,0.0,0 STARLINK-3504,1 51881U 22022AF  23183.02946156  .00000377  00000-0  41789-4 0  9991,2 51881  53.2168  85.9624 0001046  81.4294 278.6817 15.08846022 75101,6917.862,95.437,540.451,539.003,0.0
51881.0,STARLINK-3504,PAYLOAD,2023-07-02 10:14:44,15.08840497,0.0001031,53.2167,84.1779,77.7714,282.3394,-2.8625e-05,-7.43e-06,0.0,0 STARLINK-3504,1 51881U 22022AF  23183.42690685 -.00000743  00000-0 -28625-4 0  9991,2 51881  53.2167  84.1779 0001031  77.7714 282.3394 15.08840497 75169,6917.879,95.438,540.457,539.031,0.0
51881.0,STARLINK-3504,PAYLOAD,2023-07-04 01:59:23,15.08842453,0.0001194,53.2169,76.7443,86.3993,273.7136,4.133e-05,3.7e-06,0.0,0 STARLINK-3504,1 51881U 22022AF  23185.08290772  .00000370  00000-0  41330-4 0  9990,2 51881  53.2169  76.7443 0001194  86.3993 273.7136 15.08842453 75411,6917.873,95.437,540.564,538.912,0.0
51881.0,STARLINK-3504,PAYLOAD,2023-07-05 09:47:06,15.08828813,0.000118,53.2164,70.7969,88.0062,272.1065,0.00013558,1.87e-05,0.0,0 STARLINK-3504,1 51881U 22022AF  23186.40771304  .00001870  00000-0  13558-3 0  9998,2 51881  53.2164  70.7969 0001180  88.0062 272.1065 15.08828813 75614,6917.915,95.438,540.596,538.963,0.0
51881.0,STARLINK-3504,PAYLOAD,2023-07-06 01:40:57,15.08840734,0.0001317,53.2174,67.822,84.564,275.5503,1.5299e-05,-4.4e-07,0.0,0 STARLINK-3504,1 51881U 22022AF  23187.07010960 -.00000044  00000-0  15299-4 0  9994,2 51881  53.2174  67.8220 0001317  84.5640 275.5503 15.08840734 75718,6917.878,95.438,540.654,538.832,0.0
51881.0,STARLINK-3504,PAYLOAD,2023-07-07 01:31:43,15.08851133,0.0001321,53.2174,63.3622,87.9515,272.1628,6.4673e-05,7.42e-06,0.0,0 STARLINK-3504,1 51881U 22022AF  23188.06370020  .00000742  00000-0  64673-4 0  9994,2 51881  53.2174  63.3622 0001321  87.9515 272.1628 15.08851133 75860,6917.846,95.437,540.625,538.798,0.0
51881.0,STARLINK-3504,PAYLOAD,2023-07-08 01:22:31,15.08842284,0.0001331,53.218,58.9019,92.9825,267.1319,5.8134e-05,6.37e-06,0.0,0 STARLINK-3504,1 51881U 22022AF  23189.05730715  .00000637  00000-0  58134-4 0  9993,2 51881  53.2180  58.9019 0001331  92.9825 267.1319 15.08842284 76014,6917.873,95.437,540.659,538.818,0.0
51881.0,STARLINK-3504,PAYLOAD,2023-07-08 18:51:46,15.08836596,0.0001301,53.2176,55.6314,101.5599,258.5539,-3.7127e-05,-8.79e-06,0.0,0 STARLINK-3504,1 51881U 22022AF  23189.78595473 -.00000879  00000-0 -37127-4 0  9992,2 51881  53.2176  55.6314 0001301 101.5599 258.5539 15.08836596 76122,6917.891,95.438,540.656,538.856,0.0
51881.0,STARLINK-3504,PAYLOAD,2023-07-10 01:04:06,15.08837236,0.0001125,53.2179,49.9821,97.9243,262.1876,2.9681e-05,1.85e-06,0.0,0 STARLINK-3504,1 51881U 22022AF  23191.04451686  .00000185  00000-0  29681-4 0  9995,2 51881  53.2179  49.9821 0001125  97.9243 262.1876 15.08837236 76310,6917.889,95.438,540.532,538.976,0.0
51881.0,STARLINK-3504,PAYLOAD,2023-07-11 00:54:52,15.08843413,0.0001244,53.2179,45.5209,109.1988,250.9139,0.00016887,2.401e-05,0.0,0 STARLINK-3504,1 51881U 22022AF  23192.03811040  .00002401  00000-0  16887-3 0  9995,2 51881  53.2179  45.5209 0001244 109.1988 250.9139 15.08843413 76463,6917.87,95.437,540.596,538.874,0.0
51881.0,STARLINK-3504,PAYLOAD,2023-07-11 23:10:17,15.08840312,9.06e-05,53.2172,41.3561,86.0371,274.0724,5.7069e-05,6.21e-06,0.0,0 STARLINK-3504,1 51881U 22022AF  23192.96547577  .00000621  00000-0  57069-4 0  9998,2 51881  53.2172  41.3561 0000906  86.0371 274.0724 15.08840312 76602,6917.879,95.438,540.371,539.118,0.0
51881.0,STARLINK-3504,PAYLOAD,2023-07-13 06:57:59,15.08842364,9.36e-05,53.2171,35.4096,96.7975,263.3124,-1.3802e-05,-5.07e-06,0.0,0 STARLINK-3504,1 51881U 22022AF  23194.29027665 -.00000507  00000-0 -13802-4 0  9999,2 51881  53.2171  35.4096 0000936  96.7975 263.3124 15.08842364 76805,6917.873,95.437,540.386,539.091,0.0
51881.0,STARLINK-3504,PAYLOAD,2023-07-14 17:56:28,15.08841721,0.0001167,53.2184,28.8703,76.4275,283.6847,0.0001139,1.525e-05,0.0,0 STARLINK-3504,1 51881U 22022AF  23195.74755736  .00001525  00000-0  11390-3 0  9995,2 51881  53.2184  28.8703 0001167  76.4275 283.6847 15.08841721 77023,6917.875,95.437,540.547,538.933,0.0
51881.0,STARLINK-3504,PAYLOAD,2023-07-14 19:31:51,15.08847602,0.0001077,53.2183,28.5707,85.5037,274.6078,0.00011696,1.574e-05,0.0,0 STARLINK-3504,1 51881U 22022AF  23195.81379295  .00001574  00000-0  11696-3 0  9998,2 51881  53.2183  28.5707 0001077  85.5037 274.6078 15.08847602 77031,6917.857,95.437,540.467,538.977,0.0
51881.0,STARLINK-3504,PAYLOAD,2023-07-15 19:22:39,15.08839129,0.0001118,53.218,24.1098,92.4724,267.6396,6.0739e-05,6.79e-06,0.0,0 STARLINK-3504,1 51881U 22022AF  23196.80739943  .00000679  00000-0  60739-4 0  9996,2 51881  53.2180  24.1098 0001118  92.4724 267.6396 15.08839129 77185,6917.883,95.438,540.521,538.975,0.0
51881.0,STARLINK-3504,PAYLOAD,2023-07-16 04:54:58,15.08835393,0.0001074,53.2183,22.3249,89.5448,270.5667,-2.0294e-05,-6.11e-06,0.0,0 STARLINK-3504,1 51881U 22022AF  23197.20484401 -.00000611  00000-0 -20294-4 0  9997,2 51881  53.2183  22.3249 0001074  89.5448 270.5667 15.08835393 77247,6917.894,95.438,540.502,539.016,0.0
51881.0,STARLINK-3504,PAYLOAD,2023-07-17 19:04:13,15.08844118,0.0001031,53.2184,15.1922,101.8452,258.2656,0.00013788,1.907e-05,0.0,0 STARLINK-3504,1 51881U 22022AF  23198.79459814  .00001907  00000-0  13788-3 0  9998,2 51881  53.2184  15.1922 0001031 101.8452 258.2656 15.08844118 77484,6917.868,95.437,540.446,539.02,0.0
51881.0,STARLINK-3504,PAYLOAD,2023-07-18 22:05:46,15.08846862,0.0001148,53.2191,10.1341,75.0775,285.0344,0.00016237,2.298e-05,0.0,0 STARLINK-3504,1 51881U 22022AF  23199.92067927  .00002298  00000-0  16237-3 0  9990,2 51881  53.2191  10.1341 0001148  75.0775 285.0344 15.08846862 77650,6917.859,95.437,540.519,538.93,0.0
51881.0,STARLINK-3504,PAYLOAD,2023-07-19 17:10:25,15.0883817,9.86e-05,53.2175,6.5663,115.74,244.3694,-4.7107e-05,-1.037e-05,0.0,0 STARLINK-3504,1 51881U 22022AF  23200.71557124 -.00001037  00000-0 -47107-4 0  9996,2 51881  53.2175   6.5663 0000986 115.7400 244.3694 15.08838170 77776,6917.886,95.438,540.433,539.069,0.0
